; DRV8835通常運転版 標準G-code確認
; VM 3V、電流制限1.5A、各相1.5ohm直列抵抗から開始
M18
M980 U8 X100 Y100 H500
M17
G21
G90
G10 L20 P0 X0 Y0

; X、Y、XY往復
G1 X10 Y0 F300
G1 X0 Y0 F300
G1 X0 Y10 F300
G1 X0 Y0 F300
G1 X10 Y10 F300
G1 X0 Y0 F300

; 中心(0,0)、半径5mmのG1円近似
G1 X5 Y0 F300
G1 X4.619 Y1.913 F300
G1 X3.536 Y3.536 F300
G1 X1.913 Y4.619 F300
G1 X0 Y5 F300
G1 X-1.913 Y4.619 F300
G1 X-3.536 Y3.536 F300
G1 X-4.619 Y1.913 F300
G1 X-5 Y0 F300
G1 X-4.619 Y-1.913 F300
G1 X-3.536 Y-3.536 F300
G1 X-1.913 Y-4.619 F300
G1 X0 Y-5 F300
G1 X1.913 Y-4.619 F300
G1 X3.536 Y-3.536 F300
G1 X4.619 Y-1.913 F300
G1 X5 Y0 F300
G1 X0 Y0 F300
M122
M18
