; DRV8835 PWM再始動しきい値試験（推奨）
; 各Dutyで10mm角を1周し、X+/Y+/X-/Y-を同じ条件で確認する。
; U1の1相励磁、移動軸のみ励磁、初動ブーストなし。
; 各DutyのI/JをX/Yと同値にして、捕捉時も試験Dutyを使う。
; 異常な発熱、電源CC張り付き、抵抗の発熱があれば直ちにVMを切る。

M18
G21
G90
G10 L20 P0 X0 Y0

; 100%
M980 U1 X100 Y100 I100 J100 H500 C100 B0 R0 A1
M17
G1 X10 Y0 F300
G1 X10 Y10 F300
G1 X0 Y10 F300
G1 X0 Y0 F300
M18
G4 P500

; 95%
M980 U1 X95 Y95 I95 J95 H500 C100 B0 R0 A1
M17
G1 X10 Y0 F300
G1 X10 Y10 F300
G1 X0 Y10 F300
G1 X0 Y0 F300
M18
G4 P500

; 90%
M980 U1 X90 Y90 I90 J90 H500 C100 B0 R0 A1
M17
G1 X10 Y0 F300
G1 X10 Y10 F300
G1 X0 Y10 F300
G1 X0 Y0 F300
M18
G4 P500

; 85%
M980 U1 X85 Y85 I85 J85 H500 C100 B0 R0 A1
M17
G1 X10 Y0 F300
G1 X10 Y10 F300
G1 X0 Y10 F300
G1 X0 Y0 F300
M18
G4 P500

; 80%
M980 U1 X80 Y80 I80 J80 H500 C100 B0 R0 A1
M17
G1 X10 Y0 F300
G1 X10 Y10 F300
G1 X0 Y10 F300
G1 X0 Y0 F300
M18
G4 P500

; 75%
M980 U1 X75 Y75 I75 J75 H500 C100 B0 R0 A1
M17
G1 X10 Y0 F300
G1 X10 Y10 F300
G1 X0 Y10 F300
G1 X0 Y0 F300
M18
G4 P500

; 70%
M980 U1 X70 Y70 I70 J70 H500 C100 B0 R0 A1
M17
G1 X10 Y0 F300
G1 X10 Y10 F300
G1 X0 Y10 F300
G1 X0 Y0 F300
M18
G4 P500

; 65%
M980 U1 X65 Y65 I65 J65 H500 C100 B0 R0 A1
M17
G1 X10 Y0 F300
G1 X10 Y10 F300
G1 X0 Y10 F300
G1 X0 Y0 F300
M18
G4 P500

; 60%
M980 U1 X60 Y60 I60 J60 H500 C100 B0 R0 A1
M17
G1 X10 Y0 F300
G1 X10 Y10 F300
G1 X0 Y10 F300
G1 X0 Y0 F300
M18
G4 P500

; 55%
M980 U1 X55 Y55 I55 J55 H500 C100 B0 R0 A1
M17
G1 X10 Y0 F300
G1 X10 Y10 F300
G1 X0 Y10 F300
G1 X0 Y0 F300
M18
G4 P500

; 50%
M980 U1 X50 Y50 I50 J50 H500 C100 B0 R0 A1
M17
G1 X10 Y0 F300
G1 X10 Y10 F300
G1 X0 Y10 F300
G1 X0 Y0 F300
M18
G4 P500

; 45%
M980 U1 X45 Y45 I45 J45 H500 C100 B0 R0 A1
M17
G1 X10 Y0 F300
G1 X10 Y10 F300
G1 X0 Y10 F300
G1 X0 Y0 F300
M18
G4 P500

; 40%
M980 U1 X40 Y40 I40 J40 H500 C100 B0 R0 A1
M17
G1 X10 Y0 F300
G1 X10 Y10 F300
G1 X0 Y10 F300
G1 X0 Y0 F300
M18

; 最後に現在設定と安全停止状態を表示する。
M980
M122
