; DRV8835 PWM 2辺ごと低下試験
; 希望どおり、10mm角の2辺を進むごとにDutyを5%下げる。
; 各DutyはX方向1辺とY方向1辺で使われる。
; 軸・方向差とDuty差が混ざるため、しきい値確定には1周ごとの推奨版も使う。
; U1の1相励磁、移動軸のみ励磁、初動ブーストなし。

M18
G21
G90
G10 L20 P0 X0 Y0

; 100%: X+、Y+
M980 U1 X100 Y100 I100 J100 H500 C100 B0 R0 A1
M17
G1 X10 Y0 F300
G1 X10 Y10 F300
M18
G4 P500

; 95%: X-、Y-（1周目完了）
M980 U1 X95 Y95 I95 J95 H500 C100 B0 R0 A1
M17
G1 X0 Y10 F300
G1 X0 Y0 F300
M18
G4 P500

; 90%: X+、Y+
M980 U1 X90 Y90 I90 J90 H500 C100 B0 R0 A1
M17
G1 X10 Y0 F300
G1 X10 Y10 F300
M18
G4 P500

; 85%: X-、Y-（2周目完了）
M980 U1 X85 Y85 I85 J85 H500 C100 B0 R0 A1
M17
G1 X0 Y10 F300
G1 X0 Y0 F300
M18
G4 P500

; 80%: X+、Y+
M980 U1 X80 Y80 I80 J80 H500 C100 B0 R0 A1
M17
G1 X10 Y0 F300
G1 X10 Y10 F300
M18
G4 P500

; 75%: X-、Y-（3周目完了）
M980 U1 X75 Y75 I75 J75 H500 C100 B0 R0 A1
M17
G1 X0 Y10 F300
G1 X0 Y0 F300
M18
G4 P500

; 70%: X+、Y+
M980 U1 X70 Y70 I70 J70 H500 C100 B0 R0 A1
M17
G1 X10 Y0 F300
G1 X10 Y10 F300
M18
G4 P500

; 65%: X-、Y-（4周目完了）
M980 U1 X65 Y65 I65 J65 H500 C100 B0 R0 A1
M17
G1 X0 Y10 F300
G1 X0 Y0 F300
M18
G4 P500

; 60%: X+、Y+
M980 U1 X60 Y60 I60 J60 H500 C100 B0 R0 A1
M17
G1 X10 Y0 F300
G1 X10 Y10 F300
M18
G4 P500

; 55%: X-、Y-（5周目完了）
M980 U1 X55 Y55 I55 J55 H500 C100 B0 R0 A1
M17
G1 X0 Y10 F300
G1 X0 Y0 F300
M18
G4 P500

; 50%: X+、Y+
M980 U1 X50 Y50 I50 J50 H500 C100 B0 R0 A1
M17
G1 X10 Y0 F300
G1 X10 Y10 F300
M18
G4 P500

; 45%: X-、Y-（6周目完了）
M980 U1 X45 Y45 I45 J45 H500 C100 B0 R0 A1
M17
G1 X0 Y10 F300
G1 X0 Y0 F300
M18
G4 P500

; 40%: X+、Y+
M980 U1 X40 Y40 I40 J40 H500 C100 B0 R0 A1
M17
G1 X10 Y0 F300
G1 X10 Y10 F300
M18

; 40%の残り2辺も同じDutyで戻し、原点で終了する。
M980 U1 X40 Y40 I40 J40 H500 C100 B0 R0 A1
M17
G1 X0 Y10 F300
G1 X0 Y0 F300
M18
M980
M122
